[{"OBJECT_NAME":"STARLINK-5564","OBJECT_ID":"2023-046AU","EPOCH":"2026-03-09T22:00:01.999584","MEAN_MOTION":15.11676593,"ECCENTRICITY":0.00016086,"INCLINATION":43.0004,"RA_OF_ASC_NODE":144.6022,"ARG_OF_PERICENTER":272.6422,"MEAN_ANOMALY":233.8185,"EPHEMERIS_TYPE":0,"CLASSIFICATION_TYPE":"U","NORAD_CAT_ID":56134,"ELEMENT_SET_NO":999,"REV_AT_EPOCH":578,"BSTAR":0.044796839,"MEAN_MOTION_DOT":0.0083359,"MEAN_MOTION_DDOT":0},{"OBJECT_NAME":"GARAI-A","OBJECT_ID":"2025-009AC","EPOCH":"2026-03-09T21:36:19.316448","MEAN_MOTION":15.20920537,"ECCENTRICITY":0.00014341,"INCLINATION":97.4043,"RA_OF_ASC_NODE":150.5243,"ARG_OF_PERICENTER":352.7468,"MEAN_ANOMALY":7.3747,"EPHEMERIS_TYPE":0,"CLASSIFICATION_TYPE":"U","NORAD_CAT_ID":62635,"ELEMENT_SET_NO":999,"REV_AT_EPOCH":6369,"BSTAR":0.00042225314,"MEAN_MOTION_DOT":9.278e-5,"MEAN_MOTION_DDOT":0}]
